ASTROCAST-0401          
1 55110U 23001DF  26068.71172895  .00009750  00000+0  37868-3 0  9995
2 55110  97.5547 160.5206 0008142 188.4231 171.6872 15.26258462176022
STARLINK-33963          
1 63968U 25099S   26067.67090274  .00035994  00000+0  13112-2 0  9992
2 63968  42.9946 181.6926 0000985 305.2913  54.7846 15.27577129 47186
